0 CZ-4 DEB
1 26758U 99057MF  13283.60787264  .00049058  00000-0  25003-2 0  4516
2 26758 098.6272 165.8344 0022543 274.8673 085.0489 15.16557748686977
0 CZ-4 DEB
1 26758U 99057MF  13283.88285999  .00023161  00000-0  11804-2 0  4504
2 26758 098.6276 166.1477 0022193 273.9545 146.3774 15.16572575687010
0 CZ-4 DEB
1 26758U 99057MF  13286.53211089  .00020566  00000-0  10462-2 0  4525
2 26758 098.6280 169.1596 0022270 264.4633 211.4448 15.16665871687417
0 CZ-4 DEB
1 26758U 99057MF  13287.63765455  .00027696  00000-0  14043-2 0  4539
2 26758 098.6282 170.4166 0022161 260.4614 128.0849 15.16710757687581
0 CZ-4 DEB
1 26758U 99057MF  13288.51217656  .00032538  00000-0  16454-2 0  4542
2 26758 098.6280 171.4109 0022087 257.1004 223.6317 15.16766762687714
0 CZ-4 DEB
1 26758U 99057MF  13289.62200956  .00030003  00000-0  15160-2 0  4559
2 26758 098.6275 172.6731 0022065 253.0182 164.1921 15.16815970687884
0 CZ-4 DEB
1 26758U 99057MF  13291.15675343  .00025265  00000-0  12752-2 0  4565
2 26758 098.6269 174.4182 0022142 247.4093 265.3955 15.16894059688114
0 CZ-4 DEB
1 26758U 99057MF  13292.20740074  .00024041  00000-0  12123-2 0  4570
2 26758 098.6264 175.6133 0022158 243.5603 243.1992 15.16937450688274
0 CZ-4 DEB
1 26758U 99057MF  13293.52544161  .00027421  00000-0  13794-2 0  4586
2 26758 098.6264 177.1121 0022025 238.8201 241.4492 15.16993147688475
0 CZ-4 DEB
1 26758U 99057MF  13294.63031943  .00030706  00000-0  15413-2 0  4599
2 26758 098.6260 178.3692 0022012 234.6652 155.9407 15.17042434688646
0 CZ-4 DEB
1 26758U 99057MF  13295.88900727  .00029510  00000-0  14792-2 0  4604
2 26758 098.6258 179.8010 0022042 230.0173 190.6443 15.17100058688838
